{
    "links": {
        "self": "http://www.neowsapp.com/rest/v1/neo/54097669?api_key=iIulBulltgU6a56xZRHN4H3l9WmuAYTsLGpBGhQ2"
    },
    "id": "54097669",
    "neo_reference_id": "54097669",
    "name": "(2020 WT5)",
    "designation": "2020 WT5",
    "nasa_jpl_url": "http://ssd.jpl.nasa.gov/sbdb.cgi?sstr=54097669",
    "absolute_magnitude_h": 21.965,
    "estimated_diameter": {
        "kilometers": {
            "estimated_diameter_min": 0.107536272,
            "estimated_diameter_max": 0.2404584143
        },
        "meters": {
            "estimated_diameter_min": 107.5362720132,
            "estimated_diameter_max": 240.4584142684
        },
        "miles": {
            "estimated_diameter_min": 0.0668199209,
            "estimated_diameter_max": 0.1494138853
        },
        "feet": {
            "estimated_diameter_min": 352.8093026717,
            "estimated_diameter_max": 788.9055838683
        }
    },
    "is_potentially_hazardous_asteroid": true,
    "close_approach_data": [
        {
            "close_approach_date": "2021-01-20",
            "close_approach_date_full": "2021-Jan-20 11:07",
            "epoch_date_close_approach": 1611140820000,
            "relative_velocity": {
                "kilometers_per_second": "8.8053913497",
                "kilometers_per_hour": "31699.4088588359",
                "miles_per_hour": "19696.7799100917"
            },
            "miss_distance": {
                "astronomical": "0.0507830367",
                "lunar": "19.7546012763",
                "kilometers": "7597034.122451829",
                "miles": "4720578.1075760802"
            },
            "orbiting_body": "Earth"
        }
    ],
    "orbital_data": {
        "orbit_id": "2",
        "orbit_determination_date": "2020-12-05 10:16:17",
        "first_observation_date": "2020-11-29",
        "last_observation_date": "2020-12-02",
        "data_arc_in_days": 3,
        "observations_used": 22,
        "orbit_uncertainty": "9",
        "minimum_orbit_intersection": ".0186174",
        "jupiter_tisserand_invariant": "4.198",
        "epoch_osculation": "2459185.5",
        "eccentricity": ".4004054709175268",
        "semi_major_axis": "1.62686881674988",
        "inclination": "12.610194030834",
        "ascending_node_longitude": "129.4632454927294",
        "orbital_period": "757.9267394296037",
        "perihelion_distance": ".9754616420581048",
        "perihelion_argument": "333.3503885762747",
        "aphelion_distance": "2.278275991441656",
        "perihelion_time": "2459218.373049823224",
        "mean_anomaly": "344.3859606467153",
        "mean_motion": ".474979943669657",
        "equinox": "J2000",
        "orbit_class": {
            "orbit_class_type": "APO",
            "orbit_class_description": "Near-Earth asteroid orbits which cross the Earth’s orbit similar to that of 1862 Apollo",
            "orbit_class_range": "a (semi-major axis) > 1.0 AU; q (perihelion) < 1.017 AU"
        }
    },
    "is_sentry_object": false
}